{"type": "FeatureCollection", "features": [ {"type": "Feature", "properties": {"norad_id": 34001, "name": "COSMOS 2251 DEB", "group": "cosmos-2251-debris", "lat": 25.62227133466579, "lon": 66.0496644782874, "alt_km": 781.5245105463355, "timestamp": "2025-12-27T18:38:03.871167+00:00", "meta": {"OBJECT_NAME": "COSMOS 2251 DEB", "OBJECT_ID": "1993-036GL", "EPOCH": "2025-12-27T03:35:08.350944", "MEAN_MOTION": 14.37114881, "ECCENTRICITY": 0.00205402, "INCLINATION": 74.0383, "RA_OF_ASC_NODE": 255.0918, "ARG_OF_PERICENTER": 333.3043, "MEAN_ANOMALY": 177.1582, "EPHEMERIS_TYPE": 0, "CLASSIFICATION_TYPE": "U", "NORAD_CAT_ID": 34001, "ELEMENT_SET_NO": 999, "REV_AT_EPOCH": 88353, "BSTAR": 0.00019054465, "MEAN_MOTION_DOT": 5.41e-06, "MEAN_MOTION_DDOT": 0}, "tle": {"line1": "1 34001U 93036GL  25361.14940221  .00000541  00000+0  19054-3 0  9990", "line2": "2 34001  74.0383 255.0918 0020540 333.3043 177.1582 14.37114881883531"}}, "geometry": {"type": "Point", "coordinates": [66.0496644782874, 25.62227133466579]}}, {"type": "Feature", "properties": {"norad_id": 34003, "name": "COSMOS 2251 DEB", "group": "cosmos-2251-debris", "lat": 57.24035664969869, "lon": -73.82822386186626, "alt_km": 816.9551244914119, "timestamp": "2025-12-27T18:38:03.871177+00:00", "meta": {"OBJECT_NAME": "COSMOS 2251 DEB", "OBJECT_ID": "1993-036GN", "EPOCH": "2025-12-27T02:44:41.840160", "MEAN_MOTION": 13.84230324, "ECCENTRICITY": 0.02754335, "INCLINATION": 74.0772, "RA_OF_ASC_NODE": 260.9496, "ARG_OF_PERICENTER": 9.7272, "MEAN_ANOMALY": 350.9031, "EPHEMERIS_TYPE": 0, "CLASSIFICATION_TYPE": "U", "NORAD_CAT_ID": 34003, "ELEMENT_SET_NO": 999, "REV_AT_EPOCH": 84624, "BSTAR": 0.0020358254, "MEAN_MOTION_DOT": 3.026e-05, "MEAN_MOTION_DDOT": 0}, "tle": {"line1": "1 34003U 93036GN  25361.11437315  .00003026  00000+0  20358-2 0  9993", "line2": "2 34003  74.0772 260.9496 0275433   9.7272 350.9031 13.84230324846241"}}, "geometry": {"type": "Point", "coordinates": [-73.82822386186626, 57.24035664969869]}}, {"type": "Feature", "properties": {"norad_id": 34004, "name": "COSMOS 2251 DEB", "group": "cosmos-2251-debris", "lat": -32.02772113954237, "lon": -85.40255188193674, "alt_km": 713.882872874341, "timestamp": "2025-12-27T18:38:03.871188+00:00", "meta": {"OBJECT_NAME": "COSMOS 2251 DEB", "OBJECT_ID": "1993-036GP", "EPOCH": "2025-12-26T21:14:56.992704", "MEAN_MOTION": 14.49137991, "ECCENTRICITY": 0.003342, "INCLINATION": 74.0355, "RA_OF_ASC_NODE": 286.5833, "ARG_OF_PERICENTER": 297.0253, "MEAN_ANOMALY": 62.7497, "EPHEMERIS_TYPE": 0, "CLASSIFICATION_TYPE": "U", "NORAD_CAT_ID": 34004, "ELEMENT_SET_NO": 999, "REV_AT_EPOCH": 88235, "BSTAR": 0.0014119, "MEAN_MOTION_DOT": 5.384e-05, "MEAN_MOTION_DDOT": 0}, "tle": {"line1": "1 34004U 93036GP  25360.88538186  .00005384  00000+0  14119-2 0  9992", "line2": "2 34004  74.0355 286.5833 0033420 297.0253  62.7497 14.49137991882351"}}, "geometry": {"type": "Point", "coordinates": [-85.40255188193674, -32.02772113954237]}}, {"type": "Feature", "properties": {"norad_id": 34005, "name": "COSMOS 2251 DEB", "group": "cosmos-2251-debris", "lat": 51.06664261579972, "lon": -14.876385022747673, "alt_km": 767.524862483282, "timestamp": "2025-12-27T18:38:03.871198+00:00", "meta": {"OBJECT_NAME": "COSMOS 2251 DEB", "OBJECT_ID": "1993-036GQ", "EPOCH": "2025-12-27T07:11:12.505056", "MEAN_MOTION": 14.40314646, "ECCENTRICITY": 0.0021267, "INCLINATION": 74.0432, "RA_OF_ASC_NODE": 186.7469, "ARG_OF_PERICENTER": 302.5727, "MEAN_ANOMALY": 231.1529, "EPHEMERIS_TYPE": 0, "CLASSIFICATION_TYPE": "U", "NORAD_CAT_ID": 34005, "ELEMENT_SET_NO": 999, "REV_AT_EPOCH": 88588, "BSTAR": 0.00012468, "MEAN_MOTION_DOT": 3.7e-06, "MEAN_MOTION_DDOT": 0}, "tle": {"line1": "1 34005U 93036GQ  25361.29945029  .00000370  00000+0  12468-3 0  9993", "line2": "2 34005  74.0432 186.7469 0021267 302.5727 231.1529 14.40314646885882"}}, "geometry": {"type": "Point", "coordinates": [-14.876385022747673, 51.06664261579972]}}, {"type": "Feature", "properties": {"norad_id": 34006, "name": "COSMOS 2251 DEB", "group": "cosmos-2251-debris", "lat": 53.68100894146756, "lon": -89.90932834577134, "alt_km": 573.1740225647372, "timestamp": "2025-12-27T18:38:03.871209+00:00", "meta": {"OBJECT_NAME": "COSMOS 2251 DEB", "OBJECT_ID": "1993-036GR", "EPOCH": "2025-12-27T08:42:16.058304", "MEAN_MOTION": 14.95792212, "ECCENTRICITY": 0.0012055, "INCLINATION": 74.0531, "RA_OF_ASC_NODE": 113.8163, "ARG_OF_PERICENTER": 42.4247, "MEAN_ANOMALY": 13.3988, "EPHEMERIS_TYPE": 0, "CLASSIFICATION_TYPE": "U", "NORAD_CAT_ID": 34006, "ELEMENT_SET_NO": 999, "REV_AT_EPOCH": 88887, "BSTAR": 0.0036693, "MEAN_MOTION_DOT": 0.00041214, "MEAN_MOTION_DDOT": 0}, "tle": {"line1": "1 34006U 93036GR  25361.36268586  .00041214  00000+0  36693-2 0  9995", "line2": "2 34006  74.0531 113.8163 0012055  42.4247  13.3988 14.95792212888877"}}, "geometry": {"type": "Point", "coordinates": [-89.90932834577134, 53.68100894146756]}}, {"type": "Feature", "properties": {"norad_id": 34007, "name": "COSMOS 2251 DEB", "group": "cosmos-2251-debris", "lat": -34.19446661574106, "lon": 149.17655034237404, "alt_km": 702.2674337152102, "timestamp": "2025-12-27T18:38:03.871219+00:00", "meta": {"OBJECT_NAME": "COSMOS 2251 DEB", "OBJECT_ID": "1993-036GS", "EPOCH": "2025-12-27T07:49:22.955232", "MEAN_MOTION": 14.64894247, "ECCENTRICITY": 0.0044277, "INCLINATION": 74.0198, "RA_OF_ASC_NODE": 318.8158, "ARG_OF_PERICENTER": 89.0006, "MEAN_ANOMALY": 271.6234, "EPHEMERIS_TYPE": 0, "CLASSIFICATION_TYPE": "U", "NORAD_CAT_ID": 34007, "ELEMENT_SET_NO": 999, "REV_AT_EPOCH": 89293, "BSTAR": 0.00089496, "MEAN_MOTION_DOT": 4.826e-05, "MEAN_MOTION_DDOT": 0}, "tle": {"line1": "1 34007U 93036GS  25361.32596013  .00004826  00000+0  89496-3 0  9999", "line2": "2 34007  74.0198 318.8158 0044277  89.0006 271.6234 14.64894247892931"}}, "geometry": {"type": "Point", "coordinates": [149.17655034237404, -34.19446661574106]}}, {"type": "Feature", "properties": {"norad_id": 34008, "name": "COSMOS 2251 DEB", "group": "cosmos-2251-debris", "lat": 5.594139092449673, "lon": -55.355461337096095, "alt_km": 776.9877587649435, "timestamp": "2025-12-27T18:38:03.871230+00:00", "meta": {"OBJECT_NAME": "COSMOS 2251 DEB", "OBJECT_ID": "1993-036GT", "EPOCH": "2025-12-27T05:45:36.118368", "MEAN_MOTION": 14.33156406, "ECCENTRICITY": 0.0024686, "INCLINATION": 74.035, "RA_OF_ASC_NODE": 304.0177, "ARG_OF_PERICENTER": 296.9574, "MEAN_ANOMALY": 182.1703, "EPHEMERIS_TYPE": 0, "CLASSIFICATION_TYPE": "U", "NORAD_CAT_ID": 34008, "ELEMENT_SET_NO": 999, "REV_AT_EPOCH": 88172, "BSTAR": 0.00014351, "MEAN_MOTION_DOT": 3.69e-06, "MEAN_MOTION_DDOT": 0}, "tle": {"line1": "1 34008U 93036GT  25361.24000137  .00000369  00000+0  14351-3 0  9994", "line2": "2 34008  74.0350 304.0177 0024686 296.9574 182.1703 14.33156406881727"}}, "geometry": {"type": "Point", "coordinates": [-55.355461337096095, 5.594139092449673]}}, {"type": "Feature", "properties": {"norad_id": 34009, "name": "COSMOS 2251 DEB", "group": "cosmos-2251-debris", "lat": 43.61920920394571, "lon": -34.714956666511135, "alt_km": 760.2954280859058, "timestamp": "2025-12-27T18:38:03.871241+00:00", "meta": {"OBJECT_NAME": "COSMOS 2251 DEB", "OBJECT_ID": "1993-036GU", "EPOCH": "2025-12-27T03:26:44.855808", "MEAN_MOTION": 14.3323432, "ECCENTRICITY": 0.00270839, "INCLINATION": 74.0378, "RA_OF_ASC_NODE": 310.6135, "ARG_OF_PERICENTER": 16.1931, "MEAN_ANOMALY": 5.5578, "EPHEMERIS_TYPE": 0, "CLASSIFICATION_TYPE": "U", "NORAD_CAT_ID": 34009, "ELEMENT_SET_NO": 999, "REV_AT_EPOCH": 88152, "BSTAR": 0.00018308343, "MEAN_MOTION_DOT": 4.79e-06, "MEAN_MOTION_DDOT": 0}, "tle": {"line1": "1 34009U 93036GU  25361.14357472  .00000479  00000+0  18308-3 0  9999", "line2": "2 34009  74.0378 310.6135 0027083  16.1931   5.5578 14.33234320881526"}}, "geometry": {"type": "Point", "coordinates": [-34.714956666511135, 43.61920920394571]}}, {"type": "Feature", "properties": {"norad_id": 34010, "name": "COSMOS 2251 DEB", "group": "cosmos-2251-debris", "lat": -66.56020491645691, "lon": -149.73195056122162, "alt_km": 510.78231719668383, "timestamp": "2025-12-27T18:38:03.871251+00:00", "meta": {"OBJECT_NAME": "COSMOS 2251 DEB", "OBJECT_ID": "1993-036GV", "EPOCH": "2025-12-27T03:10:11.548704", "MEAN_MOTION": 15.21173016, "ECCENTRICITY": 0.00048923, "INCLINATION": 73.996, "RA_OF_ASC_NODE": 253.0769, "ARG_OF_PERICENTER": 55.592, "MEAN_ANOMALY": 304.574, "EPHEMERIS_TYPE": 0, "CLASSIFICATION_TYPE": "U", "NORAD_CAT_ID": 34010, "ELEMENT_SET_NO": 999, "REV_AT_EPOCH": 89504, "BSTAR": 0.0047140334, "MEAN_MOTION_DOT": 0.00106651, "MEAN_MOTION_DDOT": 0}, "tle": {"line1": "1 34010U 93036GV  25361.13207811  .00106651  00000+0  47140-2 0  9995", "line2": "2 34010  73.9960 253.0769 0004892  55.5920 304.5740 15.21173016895041"}}, "geometry": {"type": "Point", "coordinates": [-149.73195056122162, -66.56020491645691]}}, {"type": "Feature", "properties": {"norad_id": 34011, "name": "COSMOS 2251 DEB", "group": "cosmos-2251-debris", "lat": 23.64060454149368, "lon": 115.03704731888645, "alt_km": 769.3380366140818, "timestamp": "2025-12-27T18:38:03.871261+00:00", "meta": {"OBJECT_NAME": "COSMOS 2251 DEB", "OBJECT_ID": "1993-036GW", "EPOCH": "2025-12-26T21:56:11.390208", "MEAN_MOTION": 14.41838751, "ECCENTRICITY": 0.0036439, "INCLINATION": 74.0146, "RA_OF_ASC_NODE": 303.8452, "ARG_OF_PERICENTER": 23.6527, "MEAN_ANOMALY": 336.6293, "EPHEMERIS_TYPE": 0, "CLASSIFICATION_TYPE": "U", "NORAD_CAT_ID": 34011, "ELEMENT_SET_NO": 999, "REV_AT_EPOCH": 88120, "BSTAR": 0.00094731, "MEAN_MOTION_DOT": 3.097e-05, "MEAN_MOTION_DDOT": 0}, "tle": {"line1": "1 34011U 93036GW  25360.91402072  .00003097  00000+0  94731-3 0  9996", "line2": "2 34011  74.0146 303.8452 0036439  23.6527 336.6293 14.41838751881201"}}, "geometry": {"type": "Point", "coordinates": [115.03704731888645, 23.64060454149368]}}]}